start=new Date('2022-08-04T00:00:00.000Z').valueOf();
sats=[{"OBJECT_ID":"2022-084A","FILE":"3528364","ELEMENT_SET_NO":"999","TIME_SYSTEM":"UTC","APOAPSIS":"359.310","MEAN_MOTION":"15.70239741","NORAD_CAT_ID":"53189","SITE":"AFWTR","MEAN_ELEMENT_THEORY":"SGP4","PERIOD":"91.706","SEMIMAJOR_AXIS":"6736.348","RCS_SIZE":"MEDIUM","OBJECT_NAME":"STARLINK-4391","PERIAPSIS":"357.117","CENTER_NAME":"EARTH","TLE_LINE2":"2 53189  97.6552 274.1264 0001628 104.8375 294.6346 15.70239741  1300","OBJECT_TYPE":"PAYLOAD","TLE_LINE1":"1 53189U 22084A   22215.58334491  .00097611  00000-0  79851-3 0  9998","CLASSIFICATION_TYPE":"U","GP_ID":"209497040","MEAN_MOTION_DOT":"0.00097611","REF_FRAME":"TEME","EPHEMERIS_TYPE":"0","INCLINATION":"97.6552","ECCENTRICITY":"0.00016280","EPOCH":"2022-08-03T14:00:01.000224","LAUNCH_DATE":"2022-07-22","ARG_OF_PERICENTER":"104.8375","COUNTRY_CODE":"US","MEAN_ANOMALY":"294.6346","DECAY_DATE":null,"BSTAR":"0.00079851000000","MEAN_MOTION_DDOT":"0.0000000000000","RA_OF_ASC_NODE":"274.1264","REV_AT_EPOCH":"130"},{"GP_ID":"209499286","CLASSIFICATION_TYPE":"U","TLE_LINE1":"1 53190U 22084B   22215.91668981 -.01058028  00000-0 -97868-2 0  9990","OBJECT_TYPE":"PAYLOAD","TLE_LINE2":"2 53190  97.6556 274.4834 0001742  91.7946  43.6583 15.70089346  2453","PERIAPSIS":"357.470","CENTER_NAME":"EARTH","OBJECT_NAME":"STARLINK-4332","RCS_SIZE":"MEDIUM","PERIOD":"91.715","SEMIMAJOR_AXIS":"6736.778","MEAN_ELEMENT_THEORY":"SGP4","NORAD_CAT_ID":"53190","SITE":"AFWTR","APOAPSIS":"359.817","MEAN_MOTION":"15.70089346","TIME_SYSTEM":"UTC","FILE":"3528482","ELEMENT_SET_NO":"999","OBJECT_ID":"2022-084B","REV_AT_EPOCH":"245","RA_OF_ASC_NODE":"274.4834","MEAN_MOTION_DDOT":"0.0000000000000","DECAY_DATE":null,"BSTAR":"-0.00978680000000","MEAN_ANOMALY":"43.6583","COUNTRY_CODE":"US","ARG_OF_PERICENTER":"91.7946","LAUNCH_DATE":"2022-07-22","EPOCH":"2022-08-03T22:00:01.999584","ECCENTRICITY":"0.00017420","EPHEMERIS_TYPE":"0","INCLINATION":"97.6556","REF_FRAME":"TEME","MEAN_MOTION_DOT":"-0.01058028"},{"COUNTRY_CODE":"US","MEAN_ANOMALY":"17.8950","REV_AT_EPOCH":"245","RA_OF_ASC_NODE":"274.4977","DECAY_DATE":null,"BSTAR":"-0.00987100000000","MEAN_MOTION_DDOT":"0.0000000000000","ECCENTRICITY":"0.00018240","MEAN_MOTION_DOT":"-0.01060180","REF_FRAME":"TEME","INCLINATION":"97.6555","EPHEMERIS_TYPE":"0","ARG_OF_PERICENTER":"106.1453","EPOCH":"2022-08-03T22:00:01.999584","LAUNCH_DATE":"2022-07-22","OBJECT_NAME":"STARLINK-4369","PERIAPSIS":"357.850","CENTER_NAME":"EARTH","TLE_LINE2":"2 53191  97.6555 274.4977 0001824 106.1453  17.8950 15.69937123  2450","RCS_SIZE":"MEDIUM","GP_ID":"209499287","OBJECT_TYPE":"PAYLOAD","TLE_LINE1":"1 53191U 22084C   22215.91668981 -.01060180  00000-0 -98710-2 0  9990","CLASSIFICATION_TYPE":"U","SITE":"AFWTR","NORAD_CAT_ID":"53191","MEAN_ELEMENT_THEORY":"SGP4","FILE":"3528482","ELEMENT_SET_NO":"999","OBJECT_ID":"2022-084C","TIME_SYSTEM":"UTC","APOAPSIS":"360.308","MEAN_MOTION":"15.69937123","PERIOD":"91.723","SEMIMAJOR_AXIS":"6737.214"},{"SEMIMAJOR_AXIS":"6737.174","PERIOD":"91.723","TIME_SYSTEM":"UTC","APOAPSIS":"360.259","MEAN_MOTION":"15.69950923","FILE":"3528511","ELEMENT_SET_NO":"999","OBJECT_ID":"2022-084D","MEAN_ELEMENT_THEORY":"SGP4","SITE":"AFWTR","NORAD_CAT_ID":"53192","TLE_LINE1":"1 53192U 22084D   22215.91668981 -.01059930  00000-0 -98628-2 0  9990","CLASSIFICATION_TYPE":"U","OBJECT_TYPE":"PAYLOAD","GP_ID":"209500137","RCS_SIZE":"LARGE","CENTER_NAME":"EARTH","PERIAPSIS":"357.820","TLE_LINE2":"2 53192  97.6555 274.4958 0001810 102.9231  22.1562 15.69950923  2454","OBJECT_NAME":"STARLINK-4375","LAUNCH_DATE":"2022-07-22","EPOCH":"2022-08-03T22:00:01.999584","ARG_OF_PERICENTER":"102.9231","EPHEMERIS_TYPE":"0","INCLINATION":"97.6555","MEAN_MOTION_DOT":"-0.01059930","REF_FRAME":"TEME","ECCENTRICITY":"0.00018100","BSTAR":"-0.00986280000000","DECAY_DATE":null,"MEAN_MOTION_DDOT":"0.0000000000000","RA_OF_ASC_NODE":"274.4958","REV_AT_EPOCH":"245","MEAN_ANOMALY":"22.1562","COUNTRY_CODE":"US"},{"ARG_OF_PERICENTER":"106.4024","EPOCH":"2022-08-03T22:00:01.999584","LAUNCH_DATE":"2022-07-22","ECCENTRICITY":"0.00018170","MEAN_MOTION_DOT":"-0.01060040","REF_FRAME":"TEME","EPHEMERIS_TYPE":"0","INCLINATION":"97.6555","RA_OF_ASC_NODE":"274.4984","REV_AT_EPOCH":"245","BSTAR":"-0.00987540000000","DECAY_DATE":null,"MEAN_MOTION_DDOT":"0.0000000000000","COUNTRY_CODE":"US","MEAN_ANOMALY":"16.5987","PERIOD":"91.724","SEMIMAJOR_AXIS":"6737.254","NORAD_CAT_ID":"53193","SITE":"AFWTR","MEAN_ELEMENT_THEORY":"SGP4","OBJECT_ID":"2022-084E","FILE":"3528511","ELEMENT_SET_NO":"999","MEAN_MOTION":"15.69922982","APOAPSIS":"360.344","TIME_SYSTEM":"UTC","GP_ID":"209499775","OBJECT_TYPE":"PAYLOAD","TLE_LINE1":"1 53193U 22084E   22215.91668981 -.01060040  00000-0 -98754-2 0  9995","CLASSIFICATION_TYPE":"U","OBJECT_NAME":"STARLINK-4351","PERIAPSIS":"357.895","CENTER_NAME":"EARTH","TLE_LINE2":"2 53193  97.6555 274.4984 0001817 106.4024  16.5987 15.69922982  2452","RCS_SIZE":"LARGE"},{"ECCENTRICITY":"0.00017870","REF_FRAME":"TEME","MEAN_MOTION_DOT":"-0.01060164","EPHEMERIS_TYPE":"0","INCLINATION":"97.6555","ARG_OF_PERICENTER":"96.0531","EPOCH":"2022-08-03T22:00:01.999584","LAUNCH_DATE":"2022-07-22","COUNTRY_CODE":"US","MEAN_ANOMALY":"27.4677","RA_OF_ASC_NODE":"274.4975","REV_AT_EPOCH":"245","MEAN_MOTION_DDOT":"0.0000000000000","BSTAR":"-0.00987390000000","DECAY_DATE":null,"SITE":"AFWTR","NORAD_CAT_ID":"53194","MEAN_ELEMENT_THEORY":"SGP4","ELEMENT_SET_NO":"999","FILE":"3528511","OBJECT_ID":"2022-084F","APOAPSIS":"360.303","TIME_SYSTEM":"UTC","MEAN_MOTION":"15.69930044","SEMIMAJOR_AXIS":"6737.234","PERIOD":"91.724","OBJECT_NAME":"STARLINK-4382","TLE_LINE2":"2 53194  97.6555 274.4975 0001787  96.0531  27.4677 15.69930044  2451","CENTER_NAME":"EARTH","PERIAPSIS":"357.895","RCS_SIZE":"MEDIUM","GP_ID":"209499781","OBJECT_TYPE":"PAYLOAD","CLASSIFICATION_TYPE":"U","TLE_LINE1":"1 53194U 22084F   22215.91668981 -.01060164  00000-0 -98739-2 0  9996"},{"SEMIMAJOR_AXIS":"6737.156","PERIOD":"91.722","APOAPSIS":"360.274","TIME_SYSTEM":"UTC","MEAN_MOTION":"15.69957357","OBJECT_ID":"2022-084G","FILE":"3528511","ELEMENT_SET_NO":"999","MEAN_ELEMENT_THEORY":"SGP4","SITE":"AFWTR","NORAD_CAT_ID":"53195","CLASSIFICATION_TYPE":"U","TLE_LINE1":"1 53195U 22084G   22215.91668981 -.01059160  00000-0 -98520-2 0  9999","OBJECT_TYPE":"PAYLOAD","GP_ID":"209500126","RCS_SIZE":"LARGE","TLE_LINE2":"2 53195  97.6555 274.4950 0001860 113.9296  11.6693 15.69957357  2453","CENTER_NAME":"EARTH","PERIAPSIS":"357.768","OBJECT_NAME":"STARLINK-4404","LAUNCH_DATE":"2022-07-22","EPOCH":"2022-08-03T22:00:01.999584","ARG_OF_PERICENTER":"113.9296","EPHEMERIS_TYPE":"0","INCLINATION":"97.6555","REF_FRAME":"TEME","MEAN_MOTION_DOT":"-0.01059160","ECCENTRICITY":"0.00018600","MEAN_MOTION_DDOT":"0.0000000000000","BSTAR":"-0.00985200000000","DECAY_DATE":null,"REV_AT_EPOCH":"245","RA_OF_ASC_NODE":"274.4950","MEAN_ANOMALY":"11.6693","COUNTRY_CODE":"US"},{"BSTAR":"-0.00984500000000","DECAY_DATE":null,"MEAN_MOTION_DDOT":"0.0000000000000","REV_AT_EPOCH":"245","RA_OF_ASC_NODE":"274.4967","COUNTRY_CODE":"US","MEAN_ANOMALY":"24.1876","EPOCH":"2022-08-03T22:00:01.999584","LAUNCH_DATE":"2022-07-22","ARG_OF_PERICENTER":"100.3733","MEAN_MOTION_DOT":"-0.01057837","REF_FRAME":"TEME","EPHEMERIS_TYPE":"0","INCLINATION":"97.6555","ECCENTRICITY":"0.00017540","OBJECT_TYPE":"PAYLOAD","TLE_LINE1":"1 53196U 22084H   22215.91668981 -.01057837  00000-0 -98450-2 0  9991","CLASSIFICATION_TYPE":"U","GP_ID":"209500133","RCS_SIZE":"MEDIUM","OBJECT_NAME":"STARLINK-4407","CENTER_NAME":"EARTH","PERIAPSIS":"357.883","TLE_LINE2":"2 53196  97.6555 274.4967 0001754 100.3733  24.1876 15.69942162  2450","SEMIMAJOR_AXIS":"6737.199","PERIOD":"91.723","FILE":"3528511","OBJECT_ID":"2022-084H","ELEMENT_SET_NO":"999","MEAN_MOTION":"15.69942162","APOAPSIS":"360.246","TIME_SYSTEM":"UTC","NORAD_CAT_ID":"53196","SITE":"AFWTR","MEAN_ELEMENT_THEORY":"SGP4"},{"GP_ID":"209469795","OBJECT_TYPE":"PAYLOAD","TLE_LINE1":"1 53197U 22084J   22215.58334491 -.00685326  00000-0 -61156-2 0  9993","CLASSIFICATION_TYPE":"U","OBJECT_NAME":"STARLINK-4403","CENTER_NAME":"EARTH","PERIAPSIS":"356.971","TLE_LINE2":"2 53197  97.6550 274.1278 0001440  99.9795 304.2795 15.70335046  2407","RCS_SIZE":"LARGE","SEMIMAJOR_AXIS":"6736.076","PERIOD":"91.700","SITE":"AFWTR","NORAD_CAT_ID":"53197","MEAN_ELEMENT_THEORY":"SGP4","FILE":"3528251","OBJECT_ID":"2022-084J","ELEMENT_SET_NO":"999","TIME_SYSTEM":"UTC","APOAPSIS":"358.911","MEAN_MOTION":"15.70335046","RA_OF_ASC_NODE":"274.1278","REV_AT_EPOCH":"240","DECAY_DATE":null,"BSTAR":"-0.00611560000000","MEAN_MOTION_DDOT":"0.0000000000000","COUNTRY_CODE":"US","MEAN_ANOMALY":"304.2795","ARG_OF_PERICENTER":"99.9795","EPOCH":"2022-08-03T14:00:01.000224","LAUNCH_DATE":"2022-07-22","ECCENTRICITY":"0.00014400","MEAN_MOTION_DOT":"-0.00685326","REF_FRAME":"TEME","INCLINATION":"97.6550","EPHEMERIS_TYPE":"0"},{"CLASSIFICATION_TYPE":"U","TLE_LINE1":"1 53198U 22084K   22215.91668981 -.01058199  00000-0 -98398-2 0  9996","OBJECT_TYPE":"PAYLOAD","GP_ID":"209499783","RCS_SIZE":"MEDIUM","TLE_LINE2":"2 53198  97.6555 274.4940 0001797 107.2920  18.8267 15.69963540  2451","PERIAPSIS":"357.793","CENTER_NAME":"EARTH","OBJECT_NAME":"STARLINK-4385","PERIOD":"91.722","SEMIMAJOR_AXIS":"6737.138","APOAPSIS":"360.214","TIME_SYSTEM":"UTC","MEAN_MOTION":"15.69963540","ELEMENT_SET_NO":"999","FILE":"3528511","OBJECT_ID":"2022-084K","MEAN_ELEMENT_THEORY":"SGP4","SITE":"AFWTR","NORAD_CAT_ID":"53198","MEAN_MOTION_DDOT":"0.0000000000000","DECAY_DATE":null,"BSTAR":"-0.00983980000000","RA_OF_ASC_NODE":"274.4940","REV_AT_EPOCH":"245","MEAN_ANOMALY":"18.8267","COUNTRY_CODE":"US","LAUNCH_DATE":"2022-07-22","EPOCH":"2022-08-03T22:00:01.999584","ARG_OF_PERICENTER":"107.2920","EPHEMERIS_TYPE":"0","INCLINATION":"97.6555","REF_FRAME":"TEME","MEAN_MOTION_DOT":"-0.01058199","ECCENTRICITY":"0.00017970"}];
